ONEWEB-0120             
1 47266U 20100J   24276.29509664 -.00000528  00000+0 -15036-2 0  9993
2 47266  87.8858 114.7345 0001867  78.1569 281.9769 13.12445762183025
ONEWEB-0121             
1 47267U 20100K   24276.05491320 -.00000306  00000+0 -88527-3 0  9997
2 47267  87.8849 114.7681 0001672  87.7894 272.3426 13.12443590182907
ONEWEB-0122             
1 47268U 20100L   24277.11722706 -.00000437  00000+0 -12508-2 0  9991
2 47268  87.8851 114.5602 0001758  84.3404 275.7925 13.12442966182959
ONEWEB-0123             
1 47269U 20100M   24277.03626397 -.00000377  00000+0 -10834-2 0  9995
2 47269  87.8856 114.5937 0001553  79.8840 280.2464 13.12441996183088
ONEWEB-0124             
1 47270U 20100N   24277.10115341  .00000065  00000+0  14527-3 0  9993
2 47270  87.8848 114.5787 0001602  93.3690 266.7622 13.12441761182975
ONEWEB-0125             
1 47271U 20100P   24276.92597610  .00000459  00000+0  12410-2 0  9991
2 47271  87.8853 114.5741 0001303  82.0463 278.0813 13.12442550183014
ONEWEB-0126             
1 47272U 20100Q   24277.10358374 -.00000135  00000+0 -41090-3 0  9995
2 47272  87.8850 114.5400 0001720  81.1712 278.9611 13.12440391183100
ONEWEB-0127             
1 47273U 20100R   24276.91297152  .00000067  00000+0  14984-3 0  9994
2 47273  87.8854 114.6103 0001751  81.4122 278.7205 13.12445803183108
